ATLAS CENTAUR R/B       
1 06155U 72065B   26073.62585598  .00001586  00000+0  21922-3 0  9991
2 06155  35.0009 276.8259 0033046  50.7465 309.6161 14.77703439841990
SL-8 R/B                
1 08459U 75112B   26073.23311100  .00000271  00000+0  97592-4 0  9996
2 08459  74.0634  10.5548 0014428 101.8268 258.4505 14.38206645632526
SL-3 R/B                
1 10114U 77057B   26073.57472524  .00017818  00000+0  37105-3 0  9990
2 10114  97.5777 245.7112 0006150 264.0185  96.0362 15.45648139669082
SEASAT 1                
1 10967U 78064A   26073.40733628  .00000268  00000+0  11329-3 0  9993
2 10967 108.0100 135.3991 0002394 283.9369  76.1511 14.46164411507199
SL-14 R/B               
1 11267U 79011B   26073.54364758  .00000717  00000+0  68212-4 0  9992
2 11267  82.5204  91.9636 0017130  45.4850 314.7766 14.91914936529504
SL-8 R/B                
1 11574U 79089B   26073.46194067  .00000328  00000+0  10698-3 0  9995
2 11574  74.0667  82.2084 0017110 254.4139 105.5129 14.42354150436793
SL-14 R/B               
1 11672U 80005B   26073.62697966  .00000635  00000+0  61630-4 0  9992
2 11672  82.5135 302.5527 0016585 142.5165 217.7214 14.90936740477225
SL-8 R/B                
1 12139U 81003B   26073.57009528  .00027083  00000+0  69104-3 0  9994
2 12139  82.9385 285.5114 0261693 161.6314 199.4595 15.11187823315411
SL-3 R/B                
1 12465U 81046B   26073.58622781  .00016448  00000+0  38075-3 0  9992
2 12465  81.2295 283.8637 0019161   5.3670 354.7774 15.42132044439181
SL-3 R/B                
1 12904U 81103B   26073.57342779  .00008220  00000+0  36409-3 0  9997
2 12904  81.1591 207.7031 0012373 268.9534  91.0280 15.21445078973978
SL-3 R/B                
1 13068U 82013B   26073.57947867  .00005996  00000+0  25913-3 0  9994
2 13068  81.1759 155.0402 0022920 160.9121 199.2976 15.22069483405094
SL-3 R/B                
1 13154U 82039B   26073.56013409  .00003608  00000+0  21783-3 0  9992
2 13154  81.1576 210.3467 0029499 308.5487  51.3094 15.10113952382378
